format  = 'OEF2.0'       ! file format
rectype = 'ML'           ! record type (1L/ML)
refsys  = ECLM J2000     ! default reference system
END_OF_HEADER
2024BX1
! Keplerian elements: a, e, i, long. node, arg. peric., mean anomaly
 KEP   1.3343018403095710E+00   0.374268137764720    7.268783904359  300.169410090272  243.558017259479  118.857161556211
 MJD     60000.000000000 TDT
 MAG  32.707  0.150
! Non-gravitational parameters: model used, number of model parameters, dimension
 LSP   0  0    6
! PERIHELION   8.3491517532086923E-01
! APHELION   1.8336885052982728E+00
! ANODE   3.6037811192169095E-01
! DNODE  -8.6820097257176278E-04
! MOID   3.4581039072257945E-04
! PERIOD   5.6296261376241296E+02
! PHA F
! VINFTY    10.5485134714015
! U_PAR 5.4
! ORB_TYPE Apollo
! RMS    2.45899E-05   1.52068E-05   3.03146E-04   6.99348E-07   1.65310E-04   6.92286E-03
 COV   6.046611809296869E-10  3.737407534441957E-10  7.418484976545274E-09
 COV  -7.279490474770113E-14  2.747253553524454E-09  1.702301691245517E-07
 COV   2.312476838312467E-10  4.592151710994991E-09 -1.679122051807164E-14
 COV   1.757606802617708E-09  1.052023990222901E-07  9.189777065884537E-08
 COV  -1.239641878046779E-11  3.540426535347926E-08  2.088051618867828E-06
 COV   4.890881213896118E-13  6.565299603252231E-12 -2.268601285649163E-11
 COV   2.732738744824999E-08  7.692500328404212E-07  4.792605254328613E-05
 COR   1.000000000000000E+00  9.994837027220842E-01  9.951915722633005E-01
 COR  -4.233030333233550E-03  6.758396117781726E-01  9.999876970952154E-01
 COR   9.999999999999999E-01  9.961506980967084E-01 -1.578883229832549E-03
 COR   6.991719102739653E-01  9.993120354595535E-01  1.000000000000000E+00
 COR  -5.847230224370636E-02  7.064867838465587E-01  9.949537951118573E-01
 COR   1.000000000000000E+00  5.678870103924143E-02 -4.685746468349709E-03
 COR   1.000000000000000E+00  6.721754344441937E-01  1.000000000000000E+00
